[{"OBJECT_NAME":"NUSAT-35 (WILLIAMINA)","OBJECT_ID":"2023-001AR","EPOCH":"2026-03-09T22:28:40.425600","MEAN_MOTION":15.3245616,"ECCENTRICITY":0.00136635,"INCLINATION":97.1993,"RA_OF_ASC_NODE":124.278,"ARG_OF_PERICENTER":97.0313,"MEAN_ANOMALY":263.2484,"EPHEMERIS_TYPE":0,"CLASSIFICATION_TYPE":"U","NORAD_CAT_ID":55048,"ELEMENT_SET_NO":999,"REV_AT_EPOCH":17719,"BSTAR":0.00053479647,"MEAN_MOTION_DOT":0.0001675,"MEAN_MOTION_DDOT":0},{"OBJECT_NAME":"STARLINK-35528","OBJECT_ID":"2025-236J","EPOCH":"2026-03-09T19:13:20.386560","MEAN_MOTION":15.3018905,"ECCENTRICITY":0.00014165,"INCLINATION":53.1585,"RA_OF_ASC_NODE":103.2117,"ARG_OF_PERICENTER":85.9414,"MEAN_ANOMALY":274.1749,"EPHEMERIS_TYPE":0,"CLASSIFICATION_TYPE":"U","NORAD_CAT_ID":66094,"ELEMENT_SET_NO":999,"REV_AT_EPOCH":2296,"BSTAR":0.00061106331,"MEAN_MOTION_DOT":0.00017776,"MEAN_MOTION_DDOT":0}]
